BEESAT-4                
1 41619U 16040W   21068.15168305  .00002250  00000-0  92827-4 0  9999
2 41619  97.2838 127.0136 0009774 334.2044  25.8705 15.25025799249723
CAS-2T & KS-1Q          
1 41847U 16066G   21068.70884292  .00000148  00000-0  32056-4 0  9993
2 41847  98.6155 127.3652 0365918 157.9294 203.8117 14.38156124227542
NAYIF-1 (EO-88)         
1 42017U 17008BX  21068.62259801  .00002613  00000-0  99379-4 0  9993
2 42017  97.3273 137.9933 0007776 101.6829 258.5284 15.27633051226014
ZHUHAI-1 02 (CAS-4B)    
1 42759U 17034B   21068.88715769  .00000680  00000-0  54339-4 0  9992
2 42759  43.0186   8.4200 0010681 264.2335 199.0810 15.10104693206091
ZHUHAI-1 01 (CAS-4A)    
1 42761U 17034D   21068.88351743  .00000668  00000-0  53526-4 0  9996
2 42761  43.0188   7.5650 0011198 264.6083 198.2749 15.10185825206091
MAX VALIER SAT          
1 42778U 17036P   21068.66367871  .00001414  00000-0  62404-4 0  9996
2 42778  97.2694 120.4915 0012619 160.8760 199.2954 15.23283844206092
RADFXSAT (FOX-1B)       
1 43017U 17073E   21068.70901759  .00000748  00000-0  63814-4 0  9993
2 43017  97.7142 336.6259 0254060 265.7648  91.4496 14.79372655178374
FOX-1D (AO-92)          
1 43137U 18004AC  21068.73377977  .00001716  00000-0  71843-4 0  9990
2 43137  97.4157 143.7685 0008500 192.3073 167.7958 15.24892601175469
DIWATA-2B               
1 43678U 18084H   21068.77679417  .00000483  00000-0  53661-4 0  9994
2 43678  97.9077 193.6384 0010596  28.5264 331.6552 14.91718926128577
ES'HAIL 2               
1 43700U 18090A   21068.79298517  .00000121  00000-0  00000-0 0  9991
2 43700   0.0183 239.9368 0002354 151.5825  87.4266  1.00272767  8372
FOX-1CLIFF (AO-95)      
1 43770U 18099N   21068.74090425  .00000821  00000-0  79697-4 0  9999
2 43770  97.6750 141.0905 0015239  36.7381 323.4881 14.95220489123554
ITASAT 1                
1 43786U 18099AE  21068.74704081  .00000791  00000-0  76376-4 0  9993
2 43786  97.6770 141.7051 0015762  30.1522 330.0603 14.95529429123583
JY1SAT (JO-97)          
1 43803U 18099AX  21068.72663327  .00000462  00000-0  46510-4 0  9990
2 43803  97.6728 141.4504 0015579  29.7102 330.5000 14.95751230123583
UWE-4                   
1 43880U 18111E   21068.71028212  .00000316  00000-0  32638-4 0  9991
2 43880  97.6936 338.1197 0013929  78.7126 281.5660 14.96756952120164
PSAT2 (NO-104)          
1 44354U 19036R   21068.31782041  .00019871  00000-0  27275-3 0  9994
2 44354  28.5317  73.3016 0337693 272.5028  83.6953 15.10275157 93803
BRICSAT2 (NO-103)       
1 44355U 19036S   21068.58288127  .00048422  00000-0  58151-3 0  9991
2 44355  28.5291  41.0070 0289819 325.0391  33.1484 15.22681854 94145
JAISAT-1                
1 44419U 19038F   21068.81446248  .00001540  00000-0  89517-4 0  9991
2 44419  97.5764  33.9790 0019721 298.3800  61.5443 15.13460351 92725
DUCHIFAT-3              
1 44854U 19089C   21068.83939865  .00000741  00000-0  65830-4 0  9998
2 44854  36.9693 329.6770 0007310  42.9700 317.1588 14.99364584 68145
RS-44 & BREEZE-KM R/B   
1 44909U 19096E   21068.78792921 -.00000001  00000-0 -42119-4 0  9997
2 44909  82.5253 179.0257 0216663 326.3769  32.3738 12.79708689 56097
ORBITAL FACTORY 2 (OF-2)
1 45113U 19071C   21068.56206961  .00002616  00000-0  86949-4 0  9999
2 45113  51.6423 161.5753 0011874 294.0255  65.9484 15.34975135 61829
HUSKYSAT-1 (HO-107)     
1 45119U 19071J   21068.51194735  .00003277  00000-0  10579-3 0  9994
2 45119  51.6421 161.2385 0011245 290.2565  69.7208 15.35066561 61815
BY70-2                  
1 45857U 20042B   21068.91588298  .00001368  00000-0  20242-3 0  9995
2 45857  97.9903 145.6961 0012355 167.3278 192.8222 14.76749086 36850
SALSAT                  
1 46495U 20068K   21068.89229265  .00000895  00000-0  70231-4 0  9993
2 46495  97.6860   7.0312 0018088  53.2478 307.0405 15.03376273 24375
BY70-3                  
1 46839U 20079N   21068.86619160  .00003425  00000-0  10988-3 0  9995
2 46839  97.2491 144.7074 0006939 188.9157 282.7000 15.32977213 18948
RADFXSAT-2 (AO-109)     
1 47311U 21002C   21068.79870731  .00001330  00000-0  70733-4 0  9991
2 47311  60.6844 304.1517 0019968 342.8141  17.2266 15.21322551  7708
UVSQ-SAT                
1 47438U 21006AB  21068.71682963  .00001118  00000-0  67084-4 0  9994
2 47438  97.5002 131.6765 0014445  84.0207 276.2670 15.12904792  6971
